NORAD_CAT_ID,OBJECT_NAME,OBJECT_TYPE,EPOCH,MEAN_MOTION,ECCENTRICITY,INCLINATION,RA_OF_ASC_NODE,ARG_OF_PERICENTER,MEAN_ANOMALY,BSTAR,MEAN_MOTION_DOT,MEAN_MOTION_DDOT,TLE_LINE0,TLE_LINE1,TLE_LINE2,SEMIMAJOR_AXIS,PERIOD,APOGEE,PERIGEE,DECAYED
49181.0,STARLINK-3059,PAYLOAD,2023-01-18 12:46:08,14.98355922,0.0003026,70.0031,304.32,267.0055,93.0758,0.0015574,0.00018551,0.0,0 STARLINK-3059,1 49181U 21082BD  23018.53203883  .00018551  00000-0  15574-2 0  9996,2 49181  70.0031 304.3200 0003026 267.0055  93.0758 14.98355922 75488,6950.113,96.105,574.081,569.875,0.0
49181.0,STARLINK-3059,PAYLOAD,2023-01-18 20:46:48,14.98355333,0.0003436,70.0023,303.4779,276.2302,83.8466,0.0015562,0.00018537,0.0,0 STARLINK-3059,1 49181U 21082BD  23018.86583620  .00018537  00000-0  15562-2 0  9993,2 49181  70.0023 303.4779 0003436 276.2302  83.8466 14.98355333 75537,6950.115,96.105,574.368,569.591,0.0
49181.0,STARLINK-3059,PAYLOAD,2023-01-18 22:22:56,14.98358058,0.0003047,70.0024,303.3094,276.616,83.4653,0.0016149,0.00019243,0.0,0 STARLINK-3059,1 49181U 21082BD  23018.93259528  .00019243  00000-0  16149-2 0  9995,2 49181  70.0024 303.3094 0003047 276.6160  83.4653 14.98358058 75521,6950.106,96.105,574.089,569.8530000000001,0.0
49181.0,STARLINK-3059,PAYLOAD,2023-01-19 04:47:27,14.98366316,0.0002867,70.0022,302.637,268.103,91.9801,0.0010234,0.00012151,0.0,0 STARLINK-3059,1 49181U 21082BD  23019.19962698  .00012151  00000-0  10234-2 0  9993,2 49181  70.0022 302.6370 0002867 268.1030  91.9801 14.98366316 75580,6950.081,96.105,573.938,569.953,0.0
49181.0,STARLINK-3059,PAYLOAD,2023-01-19 17:36:32,14.98334583,0.0003117,70.0024,301.2897,263.7261,96.3543,-8.559799999999999e-05,-1.114e-05,0.0,0 STARLINK-3059,1 49181U 21082BD  23019.73371209 -.00001114  00000-0 -85598-4 0  9991,2 49181  70.0024 301.2897 0003117 263.7261  96.3543 14.98334583 75647,6950.179,96.107,574.21,569.877,0.0
49181.0,STARLINK-3059,PAYLOAD,2023-01-20 01:37:13,14.98325323,0.0003067,70.0019,300.4496,263.1918,96.8892,-0.00012732,-1.612e-05,0.0,0 STARLINK-3059,1 49181U 21082BD  23020.06751462 -.00001612  00000-0 -12732-3 0  9994,2 49181  70.0019 300.4496 0003067 263.1918  96.8892 14.98325323 75693,6950.206999999999,96.107,574.2040000000001,569.941,0.0
49181.0,STARLINK-3059,PAYLOAD,2023-01-21 04:51:30,14.98342261,0.0002799,70.0029,297.5881,262.9944,97.0897,0.0011025,0.00013091,0.0,0 STARLINK-3059,1 49181U 21082BD  23021.20243823  .00013091  00000-0  11025-2 0  9993,2 49181  70.0029 297.5881 0002799 262.9944  97.0897 14.98342261 75862,6950.155,96.106,573.965,570.075,0.0
49181.0,STARLINK-3059,PAYLOAD,2023-01-21 11:16:03,14.983355800000002,0.0002073999999999,70.0048,296.9139,265.4696,94.6227,0.00056918,6.706e-05,0.0,0 STARLINK-3059,1 49181U 21082BD  23021.46948164  .00006706  00000-0  56918-3 0  9997,2 49181  70.0048 296.9139 0002074 265.4696  94.6227 14.98335580 75901,6950.176,96.107,573.482,570.599,0.0
49181.0,STARLINK-3059,PAYLOAD,2023-01-22 17:42:36,14.98335662,0.0001867,70.0051,293.7124,294.7723,65.3241,4.525e-05,4.47e-06,0.0,0 STARLINK-3059,1 49181U 21082BD  23022.73791789  .00000447  00000-0  45250-4 0  9991,2 49181  70.0051 293.7124 0001867 294.7723  65.3241 14.98335662 76092,6950.175,96.107,573.3380000000001,570.743,0.0
49181.0,STARLINK-3059,PAYLOAD,2023-01-23 19:20:44,14.98333849,0.0002628,70.0017,291.0231,273.6363,86.4496,6.5689e-06,-1.5e-07,0.0,0 STARLINK-3059,1 49181U 21082BD  23023.80607606 -.00000015  00000-0  65689-5 0  9995,2 49181  70.0017 291.0231 0002628 273.6363  86.4496 14.98333849 76255,6950.181,96.107,573.872,570.219,0.0
49181.0,STARLINK-3059,PAYLOAD,2023-01-24 03:21:24,14.98339486,0.0002663999999999,69.9998,290.1805,273.1243,86.9612,0.00023091,2.664e-05,0.0,0 STARLINK-3059,1 49181U 21082BD  23024.13986856  .00002664  00000-0  23091-3 0  9999,2 49181  69.9998 290.1805 0002664 273.1243  86.9612 14.98339486 76303,6950.164000000001,96.106,573.88,570.177,0.0
49181.0,STARLINK-3059,PAYLOAD,2023-01-24 19:22:47,14.98312143,0.0003212,69.9997,288.4972,279.0791,81.0005,-8.8605e-05,-1.15e-05,0.0,0 STARLINK-3059,1 49181U 21082BD  23024.80749037 -.00001150  00000-0 -88605-4 0  9995,2 49181  69.9997 288.4972 0003212 279.0791  81.0005 14.98312143 76404,6950.2480000000005,96.108,574.346,569.881,0.0
49181.0,STARLINK-3059,PAYLOAD,2023-01-25 03:23:26,14.98320077,0.0003063,69.9999,287.656,271.763,88.3178,-0.00016272,-2.033e-05,0.0,0 STARLINK-3059,1 49181U 21082BD  23025.14127956 -.00002033  00000-0 -16272-3 0  9994,2 49181  69.9999 287.6560 0003063 271.7630  88.3178 14.98320077 76456,6950.224,96.108,574.217,569.96,0.0
49181.0,STARLINK-3059,PAYLOAD,2023-01-25 11:24:06,14.98324729,0.0002956,70.0003,286.8139,269.5067,90.5753,-6.382600000000001e-05,-8.54e-06,0.0,0 STARLINK-3059,1 49181U 21082BD  23025.47507898 -.00000854  00000-0 -63826-4 0  9994,2 49181  70.0003 286.8139 0002956 269.5067  90.5753 14.98324729 76527,6950.209,96.107,574.129,570.02,0.0
49181.0,STARLINK-3059,PAYLOAD,2023-01-25 19:24:46,14.98332826,0.0002979,70.0001,285.9722,266.406,93.6758,6.3888e-05,6.69e-06,0.0,0 STARLINK-3059,1 49181U 21082BD  23025.80887559  .00000669  00000-0  63888-4 0  9996,2 49181  70.0001 285.9722 0002979 266.4060  93.6758 14.98332826 76556,6950.184,96.107,574.12,569.979,0.0
49181.0,STARLINK-3059,PAYLOAD,2023-01-26 03:25:26,14.98345728,0.0002801,70.0004,285.1313,267.6761,92.4077,0.0004556999999999,5.351e-05,0.0,0 STARLINK-3059,1 49181U 21082BD  23026.14267005  .00005351  00000-0  45570-3 0  9992,2 49181  70.0004 285.1313 0002801 267.6761  92.4077 14.98345728 76604,6950.144,96.106,573.956,570.063,0.0
49181.0,STARLINK-3059,PAYLOAD,2023-01-26 22:39:03,14.98336271,0.0002948999999999,70.0005,283.1112,265.9771,94.1051,0.00028904,3.358e-05,0.0,0 STARLINK-3059,1 49181U 21082BD  23026.94379417  .00003358  00000-0  28904-3 0  9998,2 49181  70.0005 283.1112 0002949 265.9771  94.1051 14.98336271 76722,6950.173000000001,96.107,574.0880000000001,569.989,0.0
49181.0,STARLINK-3059,PAYLOAD,2023-01-27 09:52:00,14.9833773,0.0002947,70.0007,281.9346,263.0224,97.06,0.0001859,2.126e-05,0.0,0 STARLINK-3059,1 49181U 21082BD  23027.41111141  .00002126  00000-0  18590-3 0  9991,2 49181  70.0007 281.9346 0002947 263.0224  97.0600 14.98337730 76812,6950.169,96.107,574.082,569.986,0.0
49181.0,STARLINK-3059,PAYLOAD,2023-01-27 19:28:48,14.98328847,0.0002984,70.0004,280.9238,263.5026,96.5794,-3.6184e-05,-5.25e-06,0.0,0 STARLINK-3059,1 49181U 21082BD  23027.81167512 -.00000525  00000-0 -36184-4 0  9991,2 49181  70.0004 280.9238 0002984 263.5026  96.5794 14.98328847 76855,6950.196,96.107,574.135,569.988,0.0
49181.0,STARLINK-3059,PAYLOAD,2023-01-27 21:04:56,14.98328633,0.000293,70.0007,280.7563,263.9547,96.1278,-4.1943e-05,-5.93e-06,0.0,0 STARLINK-3059,1 49181U 21082BD  23027.87843519 -.00000593  00000-0 -41943-4 0  9999,2 49181  70.0007 280.7563 0002930 263.9547  96.1278 14.98328633 76889,6950.196999999999,96.107,574.099,570.026,0.0
49181.0,STARLINK-3059,PAYLOAD,2023-01-28 01:53:20,14.98336333,0.0002998,69.9998,280.2489,270.5052,89.5764,6.3187e-05,6.61e-06,0.0,0 STARLINK-3059,1 49181U 21082BD  23028.07871253  .00000661  00000-0  63187-4 0  9996,2 49181  69.9998 280.2489 0002998 270.5052  89.5764 14.98336333 76912,6950.173,96.107,574.122,569.955,0.0
49181.0,STARLINK-3059,PAYLOAD,2023-01-28 22:43:05,14.98335717,0.0003008,69.9999,278.0607,269.0043,91.0772,0.00014698,1.661e-05,0.0,0 STARLINK-3059,1 49181U 21082BD  23028.94659148  .00001661  00000-0  14698-3 0  9992,2 49181  69.9999 278.0607 0003008 269.0043  91.0772 14.98335717 77021,6950.175,96.107,574.131,569.95,0.0
49181.0,STARLINK-3059,PAYLOAD,2023-01-29 19:32:50,14.98325668,0.0002964,69.9999,275.874,269.1488,90.9331,4.1267e-05,3.99e-06,0.0,0 STARLINK-3059,1 49181U 21082BD  23029.81447631  .00000399  00000-0  41267-4 0  9991,2 49181  69.9999 275.8740 0002964 269.1488  90.9331 14.98325668 77155,6950.206,96.107,574.131,570.011,0.0
49181.0,STARLINK-3059,PAYLOAD,2023-01-29 22:45:07,14.98325021,0.0002889,69.9995,275.5357,270.2061,89.8767,0.00013966,1.574e-05,0.0,0 STARLINK-3059,1 49181U 21082BD  23029.94799803  .00001574  00000-0  13966-3 0  9996,2 49181  69.9995 275.5357 0002889 270.2061  89.8767 14.98325021 77195,6950.208,96.107,574.081,570.065,0.0
49181.0,STARLINK-3059,PAYLOAD,2023-01-30 14:46:27,14.98334092,0.0002944,69.9989,273.8531,270.1824,89.8998,7.4969e-05,8.02e-06,0.0,0 STARLINK-3059,1 49181U 21082BD  23030.61559262  .00000802  00000-0  74969-4 0  9999,2 49181  69.9989 273.8531 0002944 270.1824  89.8998 14.98334092 77296,6950.18,96.107,574.091,569.999,0.0
49181.0,STARLINK-3059,PAYLOAD,2023-01-30 22:47:07,14.98336859,0.0002942,69.9987,273.0112,269.8297,90.2524,0.00010397,1.148e-05,0.0,0 STARLINK-3059,1 49181U 21082BD  23030.94938938  .00001148  00000-0  10397-3 0  9994,2 49181  69.9987 273.0112 0002942 269.8297  90.2524 14.98336859 77326,6950.172,96.107,574.081,569.992,0.0
49181.0,STARLINK-3059,PAYLOAD,2023-01-31 01:59:23,14.98338432,0.000294,69.9987,272.6745,269.8756,90.2066,0.00012287,1.374e-05,0.0,0 STARLINK-3059,1 49181U 21082BD  23031.08290784  .00001374  00000-0  12287-3 0  9991,2 49181  69.9987 272.6745 0002940 269.8756  90.2066 14.98338432 77365,6950.167,96.106,574.075,569.988,0.0
49181.0,STARLINK-3059,PAYLOAD,2023-02-01 02:01:24,14.983373,0.0002942,69.9985,270.1493,269.9584,90.1237,0.00017247,1.966e-05,0.0,0 STARLINK-3059,1 49181U 21082BD  23032.08430599  .00001966  00000-0  17247-3 0  9990,2 49181  69.9985 270.1493 0002942 269.9584  90.1237 14.98337300 77494,6950.17,96.107,574.08,569.991,0.0
49181.0,STARLINK-3059,PAYLOAD,2023-02-02 02:03:25,14.98334043,0.0002845,69.9981,267.6238,271.2669,88.8164,2.4147e-05,1.95e-06,0.0,0 STARLINK-3059,1 49181U 21082BD  23033.08570886  .00000195  00000-0  24147-4 0  9996,2 49181  69.9981 267.6238 0002845 271.2669  88.8164 14.98334043 77641,6950.18,96.107,574.023,570.068,0.0
